start=new Date('2022-04-29T00:00:00.000Z').valueOf();
sats=[{"PERIAPSIS":"538.461","TIME_SYSTEM":"UTC","FILE":"3420377","COUNTRY_CODE":"US","OBJECT_TYPE":"PAYLOAD","MEAN_ANOMALY":"36.9194","TLE_LINE1":"1 51719U 22016F   22118.83334491 -.00043254  00000-0 -27126-2 0  9993","EPHEMERIS_TYPE":"0","OBJECT_NAME":"STARLINK-3540","TLE_LINE2":"2 51719  53.2185 182.6852 0001656  43.1292  36.9194 15.08885294 11509","MEAN_ELEMENT_THEORY":"SGP4","LAUNCH_DATE":"2022-02-21","RCS_SIZE":"LARGE","SITE":"AFETR","DECAY_DATE":null,"EPOCH":"2022-04-28T20:00:01.000224","OBJECT_ID":"2022-016F","APOAPSIS":"540.753","MEAN_MOTION":"15.08885294","CENTER_NAME":"EARTH","REF_FRAME":"TEME","CLASSIFICATION_TYPE":"U","BSTAR":"-0.00271260000000","MEAN_MOTION_DDOT":"0.0000000000000","ARG_OF_PERICENTER":"43.1292","ECCENTRICITY":"0.00016560","ELEMENT_SET_NO":"999","GP_ID":"202228570","REV_AT_EPOCH":"1150","RA_OF_ASC_NODE":"182.6852","INCLINATION":"53.2185","SEMIMAJOR_AXIS":"6917.742","PERIOD":"95.435","MEAN_MOTION_DOT":"-0.00043254","NORAD_CAT_ID":"51719"},{"TIME_SYSTEM":"UTC","PERIAPSIS":"538.363","FILE":"3420061","COUNTRY_CODE":"US","MEAN_ANOMALY":"184.8827","OBJECT_TYPE":"PAYLOAD","TLE_LINE1":"1 51720U 22016G   22118.58334491  .00049955  00000-0  31348-2 0  9990","EPHEMERIS_TYPE":"0","OBJECT_NAME":"STARLINK-3526","TLE_LINE2":"2 51720  53.2131 183.8271 0002006  36.4498 184.8827 15.08838355  3641","MEAN_ELEMENT_THEORY":"SGP4","LAUNCH_DATE":"2022-02-21","RCS_SIZE":"LARGE","DECAY_DATE":null,"SITE":"AFETR","EPOCH":"2022-04-28T14:00:01.000224","APOAPSIS":"541.138","OBJECT_ID":"2022-016G","MEAN_MOTION":"15.08838355","CENTER_NAME":"EARTH","REF_FRAME":"TEME","CLASSIFICATION_TYPE":"U","BSTAR":"0.00313480000000","MEAN_MOTION_DDOT":"0.0000000000000","ARG_OF_PERICENTER":"36.4498","ECCENTRICITY":"0.00020060","ELEMENT_SET_NO":"999","GP_ID":"202220438","RA_OF_ASC_NODE":"183.8271","REV_AT_EPOCH":"364","INCLINATION":"53.2131","SEMIMAJOR_AXIS":"6917.885","PERIOD":"95.438","MEAN_MOTION_DOT":"0.00049955","NORAD_CAT_ID":"51720"},{"PERIAPSIS":"538.640","TIME_SYSTEM":"UTC","FILE":"3420061","OBJECT_TYPE":"PAYLOAD","MEAN_ANOMALY":"147.0560","COUNTRY_CODE":"US","TLE_LINE1":"1 51721U 22016H   22118.58334491  .00052475  00000-0  32938-2 0  9998","EPHEMERIS_TYPE":"0","TLE_LINE2":"2 51721  53.2184 183.8076 0001747  34.3565 147.0560 15.08806395  3640","OBJECT_NAME":"STARLINK-3524","MEAN_ELEMENT_THEORY":"SGP4","LAUNCH_DATE":"2022-02-21","SITE":"AFETR","DECAY_DATE":null,"EPOCH":"2022-04-28T14:00:01.000224","RCS_SIZE":"LARGE","MEAN_MOTION":"15.08806395","APOAPSIS":"541.057","OBJECT_ID":"2022-016H","BSTAR":"0.00329380000000","MEAN_MOTION_DDOT":"0.0000000000000","REF_FRAME":"TEME","CENTER_NAME":"EARTH","CLASSIFICATION_TYPE":"U","ELEMENT_SET_NO":"999","ECCENTRICITY":"0.00017470","GP_ID":"202220359","ARG_OF_PERICENTER":"34.3565","INCLINATION":"53.2184","RA_OF_ASC_NODE":"183.8076","REV_AT_EPOCH":"364","MEAN_MOTION_DOT":"0.00052475","NORAD_CAT_ID":"51721","SEMIMAJOR_AXIS":"6917.983","PERIOD":"95.440"},{"EPHEMERIS_TYPE":"0","TLE_LINE1":"1 51722U 22016J   22118.83334491 -.00047708  00000-0 -29955-2 0  9997","OBJECT_TYPE":"PAYLOAD","MEAN_ANOMALY":"134.5658","COUNTRY_CODE":"US","PERIAPSIS":"538.254","TIME_SYSTEM":"UTC","FILE":"3420378","MEAN_MOTION_DOT":"-0.00047708","NORAD_CAT_ID":"51722","SEMIMAJOR_AXIS":"6917.739","PERIOD":"95.435","REV_AT_EPOCH":"1149","RA_OF_ASC_NODE":"182.7021","INCLINATION":"53.2120","ELEMENT_SET_NO":"999","ECCENTRICITY":"0.00019510","GP_ID":"202228098","ARG_OF_PERICENTER":"45.5010","BSTAR":"-0.00299550000000","MEAN_MOTION_DDOT":"0.0000000000000","CENTER_NAME":"EARTH","REF_FRAME":"TEME","CLASSIFICATION_TYPE":"U","APOAPSIS":"540.953","MEAN_MOTION":"15.08886409","OBJECT_ID":"2022-016J","DECAY_DATE":null,"SITE":"AFETR","EPOCH":"2022-04-28T20:00:01.000224","RCS_SIZE":"LARGE","MEAN_ELEMENT_THEORY":"SGP4","LAUNCH_DATE":"2022-02-21","TLE_LINE2":"2 51722  53.2120 182.7021 0001951  45.5010 134.5658 15.08886409 11490","OBJECT_NAME":"STARLINK-3535"},{"TLE_LINE1":"1 51723U 22016K   22118.83334491  .00000147  00000-0  50622-5 0  9990","EPHEMERIS_TYPE":"0","MEAN_ANOMALY":"66.5546","OBJECT_TYPE":"PAYLOAD","COUNTRY_CODE":"US","PERIAPSIS":"335.473","TIME_SYSTEM":"UTC","FILE":"3420377","ECCENTRICITY":"0.00087230","ELEMENT_SET_NO":"999","GP_ID":"202228064","ARG_OF_PERICENTER":"277.9571","BSTAR":"0.00000506220000","MEAN_MOTION_DDOT":"0.0000000000000","REF_FRAME":"TEME","CENTER_NAME":"EARTH","CLASSIFICATION_TYPE":"U","MEAN_MOTION_DOT":"0.00000147","NORAD_CAT_ID":"51723","SEMIMAJOR_AXIS":"6719.470","PERIOD":"91.361","RA_OF_ASC_NODE":"170.4035","INCLINATION":"53.2201","REV_AT_EPOCH":"1171","MEAN_ELEMENT_THEORY":"SGP4","LAUNCH_DATE":"2022-02-21","TLE_LINE2":"2 51723  53.2201 170.4035 0008723 277.9571  66.5546 15.76159818 11714","OBJECT_NAME":"STARLINK-3531","APOAPSIS":"347.196","OBJECT_ID":"2022-016K","MEAN_MOTION":"15.76159818","DECAY_DATE":null,"SITE":"AFETR","EPOCH":"2022-04-28T20:00:01.000224","RCS_SIZE":"LARGE"},{"TLE_LINE2":"2 51724  53.2169 182.6950 0001329  51.5461 168.5442 15.08772699 11494","OBJECT_NAME":"STARLINK-3529","LAUNCH_DATE":"2022-02-21","MEAN_ELEMENT_THEORY":"SGP4","EPOCH":"2022-04-28T20:00:01.000224","DECAY_DATE":null,"SITE":"AFETR","RCS_SIZE":"LARGE","APOAPSIS":"540.871","OBJECT_ID":"2022-016L","MEAN_MOTION":"15.08772699","MEAN_MOTION_DDOT":"0.0000000000000","BSTAR":"0.00644440000000","CLASSIFICATION_TYPE":"U","REF_FRAME":"TEME","CENTER_NAME":"EARTH","GP_ID":"202228069","ECCENTRICITY":"0.00013290","ELEMENT_SET_NO":"999","ARG_OF_PERICENTER":"51.5461","INCLINATION":"53.2169","RA_OF_ASC_NODE":"182.6950","REV_AT_EPOCH":"1149","NORAD_CAT_ID":"51724","MEAN_MOTION_DOT":"0.00103595","PERIOD":"95.442","SEMIMAJOR_AXIS":"6918.086","FILE":"3420377","PERIAPSIS":"539.032","TIME_SYSTEM":"UTC","MEAN_ANOMALY":"168.5442","OBJECT_TYPE":"PAYLOAD","COUNTRY_CODE":"US","TLE_LINE1":"1 51724U 22016L   22118.83334491  .00103595  00000-0  64444-2 0  9996","EPHEMERIS_TYPE":"0"},{"OBJECT_NAME":"STARLINK-3522","TLE_LINE2":"2 51725  53.2137 183.8260 0001854  42.5258 198.8453 15.08868487  3641","LAUNCH_DATE":"2022-02-21","MEAN_ELEMENT_THEORY":"SGP4","RCS_SIZE":"LARGE","EPOCH":"2022-04-28T14:00:01.000224","DECAY_DATE":null,"SITE":"AFETR","OBJECT_ID":"2022-016M","APOAPSIS":"540.941","MEAN_MOTION":"15.08868487","CLASSIFICATION_TYPE":"U","REF_FRAME":"TEME","CENTER_NAME":"EARTH","MEAN_MOTION_DDOT":"0.0000000000000","BSTAR":"0.00004920500000","ARG_OF_PERICENTER":"42.5258","GP_ID":"202220688","ELEMENT_SET_NO":"999","ECCENTRICITY":"0.00018540","INCLINATION":"53.2137","RA_OF_ASC_NODE":"183.8260","REV_AT_EPOCH":"364","PERIOD":"95.436","SEMIMAJOR_AXIS":"6917.793","NORAD_CAT_ID":"51725","MEAN_MOTION_DOT":"0.00000496","FILE":"3420061","TIME_SYSTEM":"UTC","PERIAPSIS":"538.376","COUNTRY_CODE":"US","MEAN_ANOMALY":"198.8453","OBJECT_TYPE":"PAYLOAD","TLE_LINE1":"1 51725U 22016M   22118.58334491  .00000496  00000-0  49205-4 0  9995","EPHEMERIS_TYPE":"0"},{"CLASSIFICATION_TYPE":"U","CENTER_NAME":"EARTH","REF_FRAME":"TEME","MEAN_MOTION_DDOT":"0.0000000000000","BSTAR":"-0.01975500000000","ARG_OF_PERICENTER":"32.3198","GP_ID":"202220196","ECCENTRICITY":"0.00018440","ELEMENT_SET_NO":"999","RA_OF_ASC_NODE":"175.8493","INCLINATION":"53.2174","REV_AT_EPOCH":"370","PERIOD":"93.571","SEMIMAJOR_AXIS":"6827.364","NORAD_CAT_ID":"51726","MEAN_MOTION_DOT":"-0.00714632","OBJECT_NAME":"STARLINK-3527","TLE_LINE2":"2 51726  53.2174 175.8493 0001844  32.3198  56.1778 15.38945341  3702","LAUNCH_DATE":"2022-02-21","MEAN_ELEMENT_THEORY":"SGP4","RCS_SIZE":"LARGE","EPOCH":"2022-04-28T14:00:01.000224","SITE":"AFETR","DECAY_DATE":null,"MEAN_MOTION":"15.38945341","APOAPSIS":"450.488","OBJECT_ID":"2022-016N","TLE_LINE1":"1 51726U 22016N   22118.58334491 -.00714632  00000-0 -19755-1 0  9996","EPHEMERIS_TYPE":"0","FILE":"3420061","PERIAPSIS":"447.970","TIME_SYSTEM":"UTC","COUNTRY_CODE":"US","MEAN_ANOMALY":"56.1778","OBJECT_TYPE":"PAYLOAD"},{"EPHEMERIS_TYPE":"0","TLE_LINE1":"1 51727U 22016P   22118.58334491  .00008245  00000-0  53494-3 0  9991","COUNTRY_CODE":"US","OBJECT_TYPE":"PAYLOAD","MEAN_ANOMALY":"241.0499","FILE":"3420061","TIME_SYSTEM":"UTC","PERIAPSIS":"538.309","PERIOD":"95.435","SEMIMAJOR_AXIS":"6917.764","NORAD_CAT_ID":"51727","MEAN_MOTION_DOT":"0.00008245","INCLINATION":"53.2134","RA_OF_ASC_NODE":"183.8253","REV_AT_EPOCH":"364","ARG_OF_PERICENTER":"40.2784","GP_ID":"202220608","ECCENTRICITY":"0.00019070","ELEMENT_SET_NO":"999","CLASSIFICATION_TYPE":"U","REF_FRAME":"TEME","CENTER_NAME":"EARTH","MEAN_MOTION_DDOT":"0.0000000000000","BSTAR":"0.00053494000000","MEAN_MOTION":"15.08878211","APOAPSIS":"540.948","OBJECT_ID":"2022-016P","RCS_SIZE":"LARGE","EPOCH":"2022-04-28T14:00:01.000224","SITE":"AFETR","DECAY_DATE":null,"LAUNCH_DATE":"2022-02-21","MEAN_ELEMENT_THEORY":"SGP4","OBJECT_NAME":"STARLINK-3532","TLE_LINE2":"2 51727  53.2134 183.8253 0001907  40.2784 241.0499 15.08878211  3647"},{"EPHEMERIS_TYPE":"0","TLE_LINE1":"1 51728U 22016Q   22118.83334491 -.00719709  00000-0 -19989-1 0  9995","FILE":"3420378","TIME_SYSTEM":"UTC","PERIAPSIS":"448.517","MEAN_ANOMALY":"17.8617","OBJECT_TYPE":"PAYLOAD","COUNTRY_CODE":"US","REV_AT_EPOCH":"1167","INCLINATION":"53.2175","RA_OF_ASC_NODE":"174.6721","NORAD_CAT_ID":"51728","MEAN_MOTION_DOT":"-0.00719709","PERIOD":"93.578","SEMIMAJOR_AXIS":"6827.729","MEAN_MOTION_DDOT":"0.0000000000000","BSTAR":"-0.01998900000000","CLASSIFICATION_TYPE":"U","REF_FRAME":"TEME","CENTER_NAME":"EARTH","GP_ID":"202228087","ELEMENT_SET_NO":"999","ECCENTRICITY":"0.00015780","ARG_OF_PERICENTER":"38.3291","EPOCH":"2022-04-28T20:00:01.000224","DECAY_DATE":null,"SITE":"AFETR","RCS_SIZE":"LARGE","MEAN_MOTION":"15.38821853","APOAPSIS":"450.671","OBJECT_ID":"2022-016Q","TLE_LINE2":"2 51728  53.2175 174.6721 0001578  38.3291  17.8617 15.38821853 11672","OBJECT_NAME":"STARLINK-3448","LAUNCH_DATE":"2022-02-21","MEAN_ELEMENT_THEORY":"SGP4"}];
